[{"OBJECT_NAME":"BANDWAGON-2 OBJECT V","OBJECT_ID":"2024-247V","EPOCH":"2026-03-09T10:44:24.989280","MEAN_MOTION":15.44431692,"ECCENTRICITY":0.00083159,"INCLINATION":44.9939,"RA_OF_ASC_NODE":91.7715,"ARG_OF_PERICENTER":16.2729,"MEAN_ANOMALY":343.8426,"EPHEMERIS_TYPE":0,"CLASSIFICATION_TYPE":"U","NORAD_CAT_ID":62396,"ELEMENT_SET_NO":999,"REV_AT_EPOCH":6801,"BSTAR":0.0008906217,"MEAN_MOTION_DOT":0.00042031,"MEAN_MOTION_DDOT":0},{"OBJECT_NAME":"FREGAT DEB","OBJECT_ID":"2011-037BP","EPOCH":"2026-03-09T06:46:06.972096","MEAN_MOTION":12.80481599,"ECCENTRICITY":0.12781698,"INCLINATION":51.4136,"RA_OF_ASC_NODE":170.397,"ARG_OF_PERICENTER":239.8148,"MEAN_ANOMALY":107.0118,"EPHEMERIS_TYPE":0,"CLASSIFICATION_TYPE":"U","NORAD_CAT_ID":45829,"ELEMENT_SET_NO":999,"REV_AT_EPOCH":25015,"BSTAR":0.0043609848,"MEAN_MOTION_DOT":0.00065096,"MEAN_MOTION_DDOT":0}]
